stk.v.4.3 

BEGIN Ephemeris 
 
NumberOfEphemerisPoints		146 
ScenarioEpoch	    1 Sep 2020 11: 0:58.197887242 
InterpolationMethod		Lagrange 
InterpolationOrder		5 
CentralBody				Earth 
CoordinateSystem			TEME 
CoordinateSystemEpoch	  1 Sep 2020 11: 0:58.197887242 
DistanceUnit			Kilometers 
 
EphemerisTimePosVel 
 
       0.00000000   -5448.36482589   -4643.25794580       0.03883728  0.310895361 -0.350769862  7.449090426
 END Ephemeris 
